AISTECHSAT 2            
1 43768U 18099L   26165.71191255  .00004614  00000+0  24761-3 0  9993
2 43768  97.4295 213.7999 0003330 323.0099  37.0904 15.15427724411907
FOX-1CLIFF (AO-95)      
1 43770U 18099N   26165.65258519  .00010710  00000+0  41050-3 0  9990
2 43770  97.4388 225.9077 0008247   7.1912 352.9444 15.26665093412837
RANGE-A                 
1 43773U 18099R   26165.86384895  .00004805  00000+0  27264-3 0  9992
2 43773  97.3965 208.5107 0010068   5.1044 355.0288 15.13371890412148
SNUSAT-2                
1 43782U 18099AA  26165.11141786  .00008628  00000+0  38269-3 0  9994
2 43782  97.4062 218.5423 0008763 311.0758  48.9720 15.21797709412564
SNUGLITE                
1 43784U 18099AC  26165.12959470  .00011763  00000+0  44475-3 0  9994
2 43784  97.3877 219.4395 0001291 317.8162  42.2978 15.27120086412857
ITASAT                  
1 43786U 18099AE  26165.71612205  .00005811  00000+0  28016-3 0  9993
2 43786  97.4031 217.2768 0012365   9.0773 351.0683 15.19030078412535
EAGLET-I                
1 43790U 18099AJ  26165.60568616  .00004020  00000+0  23157-3 0  9994
2 43790  97.4235 215.3426 0010934   3.5694 356.5613 15.12923736411949
ESEO                    
1 43792U 18099AL  26165.85211344  .00002077  00000+0  15338-3 0  9998
2 43792  97.3971 203.3400 0011573 347.7740  12.3204 15.04239575411452
THEA                    
1 43796U 18099AQ  26165.65972656  .00016847  00000+0  49874-3 0  9992
2 43796  97.4445 235.3269 0005851 294.4586  65.6046 15.34940589412306
ASTROCAST 0.1           
1 43798U 18099AS  26165.16148111  .00036778  00000+0  67053-3 0  9995
2 43798  97.4384 243.5643 0004918 214.5977 145.4955 15.49357365413966
JY1SAT (JO-97)          
1 43803U 18099AX  26165.15960116  .00016674  00000+0  51563-3 0  9990
2 43803  97.4134 227.9830 0004214 277.2169  82.8595 15.33568110413169
SUOMI-100               
1 43804U 18099AY  26165.65291372  .00011316  00000+0  41181-3 0  9990
2 43804  97.4195 226.0553 0008367 290.0170  70.0169 15.28364085413038
CENTAURI-1              
1 43809U 18099BD  26165.63246898  .00005301  00000+0  27616-3 0  9990
2 43809  97.4224 217.4065 0013323 343.1144  16.9643 15.16342950412115
GLOBAL-2                
1 43812U 18099BG  26165.81975681  .00002604  00000+0  17006-3 0  9998
2 43812  97.3556 202.4317 0006797 148.3532 211.8107 15.08660843411556
SEAHAWK-1               
1 43820U 18099BQ  26165.63926904  .00008184  00000+0  35308-3 0  9995
2 43820  97.3962 218.1635 0006975 326.4004  33.6789 15.22771626412144
SAUDISAT 5A             
1 43831U 18102A   26165.87282456  .00005278  00000+0  19544-3 0  9990
2 43831  97.3073 227.4981 0010879 136.1079 224.1027 15.28027233415321
SAUDISAT 5B             
1 43833U 18102C   26165.89205796  .00004783  00000+0  17597-3 0  9992
2 43833  97.3180 230.5825 0011539 138.4574 221.7544 15.28285130415445
ISAT                    
1 43879U 18111D   26165.79659588  .00085076  00000+0  86450-3 0  9991
2 43879  97.5888 100.8344 0000770 103.7373 256.3971 15.64912377410795
UWE-4                   
1 43880U 18111E   26165.30258735  .00032250  00000+0  66149-3 0  9998
2 43880  97.5859  93.5612 0006031 355.2213   4.8977 15.45969448410336
D-STAR ONE (SPARROW)    
1 43881U 18111F   26165.39748497  .00147075  00000+0  10338-2 0  9997
2 43881  97.6125 105.9738 0004383 109.0587 251.1152 15.73694682410932
JILIN-1 09              
1 43943U 19005B   26165.81087759  .00004707  00000+0  21854-3 0  9993
2 43943  97.4744 260.7934 0003814  99.3127 260.8539 15.20496954408783
JILIN-1 10              
1 43946U 19005E   26165.83110271  .00005447  00000+0  21656-3 0  9996
2 43946  97.4791 264.6350 0006577 289.4636  70.5891 15.25700765408958
EGYPTSAT-A (MISRSAT-A)  
1 44047U 19008A   26165.83254683  .00000999  00000+0  16590-3 0  9996
2 44047  98.0164 230.6252 0001271  93.3721 266.7632 14.72306406392891
EMISAT                  
1 44078U 19018A   26165.85718938  .00000040  00000+0  24854-4 0  9991
2 44078  98.4653 224.6702 0017573 222.1332 137.8509 14.43685550379723
JILIN-1 GAOFEN 3A       
1 44312U 19032C   26165.86905720  .00009566  00000+0  30735-3 0  9992
2 44312  44.9759   9.6941 0006500 284.5586  75.4577 15.32585020387488
WT 1B                   
1 44316U 19032G   26165.84467819  .00009346  00000+0  35470-3 0  9993
2 44316  44.9725  73.7240 0009810 237.5656 122.4279 15.27145527386728
PROX-1                  
1 44339U 19036A   26165.24564168  .00013018  00000+0  12702-2 0  9994
2 44339  23.9929 133.9015 0005534   2.9449 357.1083 14.90548290373031
NPSAT1                  
1 44340U 19036B   26165.47819521  .00004761  00000+0  66297-3 0  9991
2 44340  23.9992 235.4071 0007451 174.9278 185.1294 14.74560027372095
