OBJECT_NAME,OBJECT_ID,EPOCH,MEAN_MOTION,ECCENTRICITY,INCLINATION,RA_OF_ASC_NODE,ARG_OF_PERICENTER,MEAN_ANOMALY,EPHEMERIS_TYPE,CLASSIFICATION_TYPE,NORAD_CAT_ID,ELEMENT_SET_NO,REV_AT_EPOCH,BSTAR,MEAN_MOTION_DOT,MEAN_MOTION_DDOT
AISTECHSAT 2,2018-099L,2026-06-14T17:05:09.244320,15.15427724,.000333,97.4295,213.7999,323.0099,37.0904,0,U,43768,999,41190,.24761E-3,.4614E-4,0
FOX-1CLIFF (AO-95),2018-099N,2026-06-14T15:39:43.360416,15.26665093,.0008247,97.4388,225.9077,7.1912,352.9444,0,U,43770,999,41283,.4105E-3,.1071E-3,0
RANGE-A,2018-099R,2026-06-14T20:43:56.549280,15.13371890,.0010068,97.3965,208.5107,5.1044,355.0288,0,U,43773,999,41214,.27264E-3,.4805E-4,0
SNUSAT-2,2018-099AA,2026-06-14T02:40:26.503104,15.21797709,.00087633,97.4062,218.5423,311.0758,48.9720,0,U,43782,999,41256,.38269478E-3,.8628E-4,0
SNUGLITE,2018-099AC,2026-06-14T03:06:36.982080,15.27120086,.00012917,97.3877,219.4395,317.8162,42.2978,0,U,43784,999,41285,.44474929E-3,.11763E-3,0
ITASAT,2018-099AE,2026-06-14T17:11:12.945120,15.19030078,.0012365,97.4031,217.2768,9.0773,351.0683,0,U,43786,999,41253,.28016E-3,.5811E-4,0
EAGLET-I,2018-099AJ,2026-06-14T14:32:11.284224,15.12923736,.0010934,97.4235,215.3426,3.5694,356.5613,0,U,43790,999,41194,.23157E-3,.402E-4,0
ESEO,2018-099AL,2026-06-14T20:27:02.601216,15.04239575,.0011573,97.3971,203.3400,347.7740,12.3204,0,U,43792,999,41145,.15338E-3,.2077E-4,0
THEA,2018-099AQ,2026-06-14T15:50:00.374784,15.34940589,.0005851,97.4445,235.3269,294.4586,65.6046,0,U,43796,999,41230,.49874E-3,.16847E-3,0
ASTROCAST 0.1,2018-099AS,2026-06-14T03:52:31.967904,15.49357365,.00049185,97.4384,243.5643,214.5977,145.4955,0,U,43798,999,41396,.67052866E-3,.36778E-3,0
JY1SAT (JO-97),2018-099AX,2026-06-14T03:49:49.540224,15.33568110,.00042143,97.4134,227.9830,277.2169,82.8595,0,U,43803,999,41316,.5156255E-3,.16674E-3,0
SUOMI-100,2018-099AY,2026-06-14T15:40:11.745408,15.28364085,.0008367,97.4195,226.0553,290.0170,70.0169,0,U,43804,999,41303,.41181E-3,.11316E-3,0
CENTAURI-1,2018-099BD,2026-06-14T15:10:45.319872,15.16342950,.0013323,97.4224,217.4065,343.1144,16.9643,0,U,43809,999,41211,.27616E-3,.5301E-4,0
GLOBAL-2,2018-099BG,2026-06-14T19:40:26.988384,15.08660843,.0006797,97.3556,202.4317,148.3532,211.8107,0,U,43812,999,41155,.17006E-3,.2604E-4,0
SEAHAWK-1,2018-099BQ,2026-06-14T15:20:32.845056,15.22771626,.0006975,97.3962,218.1635,326.4004,33.6789,0,U,43820,999,41214,.35308E-3,.8184E-4,0
SAUDISAT 5A,2018-102A,2026-06-14T20:56:52.041984,15.28027233,.0010879,97.3073,227.4981,136.1079,224.1027,0,U,43831,999,41532,.19544E-3,.5278E-4,0
SAUDISAT 5B,2018-102C,2026-06-14T21:24:33.807744,15.28285130,.0011539,97.3180,230.5825,138.4574,221.7544,0,U,43833,999,41544,.17597E-3,.4783E-4,0
ISAT,2018-111D,2026-06-14T19:07:05.884032,15.64912377,.000077,97.5888,100.8344,103.7373,256.3971,0,U,43879,999,41079,.8645E-3,.85076E-3,0
UWE-4,2018-111E,2026-06-14T07:15:43.547040,15.45969448,.0006031,97.5859,93.5612,355.2213,4.8977,0,U,43880,999,41033,.66149013E-3,.3225E-3,0
D-STAR ONE (SPARROW),2018-111F,2026-06-14T09:32:22.701408,15.73694682,.00043835,97.6125,105.9738,109.0587,251.1152,0,U,43881,999,41093,.10338301E-2,.147075E-2,0
JILIN-1 09,2019-005B,2026-06-14T19:27:39.823776,15.20496954,.0003814,97.4744,260.7934,99.3127,260.8539,0,U,43943,999,40878,.21854E-3,.4707E-4,0
JILIN-1 10,2019-005E,2026-06-14T19:56:47.274144,15.25700765,.0006577,97.4791,264.6350,289.4636,70.5891,0,U,43946,999,40895,.21656E-3,.5447E-4,0
EGYPTSAT-A (MISRSAT-A),2019-008A,2026-06-14T19:58:52.046112,14.72306406,.0001271,98.0164,230.6252,93.3721,266.7632,0,U,44047,999,39289,.1659E-3,.999E-5,0
EMISAT,2019-018A,2026-06-14T20:34:21.162432,14.43685550,.0017573,98.4653,224.6702,222.1332,137.8509,0,U,44078,999,37972,.24854E-4,.4E-6,0
JILIN-1 GAOFEN 3A,2019-032C,2026-06-14T20:51:26.542080,15.32585020,.00065,44.9759,9.6941,284.5586,75.4577,0,U,44312,999,38748,.30735E-3,.9566E-4,0
WT 1B,2019-032G,2026-06-14T20:16:20.195616,15.27145527,.000981,44.9725,73.7240,237.5656,122.4279,0,U,44316,999,38672,.3547E-3,.9346E-4,0
PROX-1,2019-036A,2026-06-14T05:53:43.441152,14.90548290,.0005534,23.9929,133.9015,2.9449,357.1083,0,U,44339,999,37303,.12702E-2,.13018E-3,0
NPSAT1,2019-036B,2026-06-14T11:28:36.066144,14.74560027,.00074514,23.9992,235.4071,174.9278,185.1294,0,U,44340,999,37209,.6629703E-3,.4761E-4,0
